TOMORROW-S9             
1 66309U 25248S   26185.93953180  .00006381  00000+0  29783-3 0  9994
2 66309  45.4040  26.5730 0003249 176.5870 183.5039 15.20671658 37211
CMS-03 (GSAT-7R)        
1 66311U 25249B   26186.16365708 -.00000064  00000+0  00000+0 0  9997
2 66311   0.0515 255.9198 0001881 179.6143 340.5229  1.00271716  2527
YAOGAN-46               
1 66313U 25250A   26185.27961817 -.00000026  00000+0  00000+0 0  9993
2 66313  20.0833 327.2118 0004768 157.8496 202.1946  5.31203766 13007
SENTINEL-1D             
1 66315U 25251A   26185.99559531 -.00000119  00000+0 -15564-4 0  9991
2 66315  98.1835 193.1045 0001306  90.7095 269.4254 14.59197335 35322
QPS-SAR-14 (YACHIHOKO-I)
1 66316U 25252A   26185.97652528  .00007762  00000+0  63085-3 0  9990
2 66316  42.0046  34.0129 0005701 356.9146   3.1643 14.99804901 36186
STARLINK-35442          
1 66319U 25253A   26186.20821721  .00034028  00000+0  12384-2 0  9994
2 66319  43.0001 269.1605 0002055 281.3463  78.7157 15.27632116 38216
STARLINK-34616          
1 66320U 25253B   26185.69655280  .00032168  00000+0  11726-2 0  9995
2 66320  43.0014 271.3330 0001822 291.1818  68.8839 15.27602414 38222
STARLINK-34615          
1 66321U 25253C   26185.52608957  .00027315  00000+0  99732-3 0  9999
2 66321  42.9976 272.6120 0001088 277.8020  82.2708 15.27617514 38119
STARLINK-35292          
1 66322U 25253D   26186.29915705 -.00002311  00000+0 -74577-4 0  9999
2 66322  42.9970 268.1152 0001484 262.1588  97.9095 15.27544903 38231
STARLINK-35309          
1 66323U 25253E   26186.20951456  .00026890  00000+0  98154-3 0  9996
2 66323  42.9992 269.1588 0001251 226.4000 133.6748 15.27633699 38216
STARLINK-35506          
1 66324U 25253F   26185.30809806  .00036513  00000+0  13334-2 0  9997
2 66324  43.0017 273.5754 0000417 261.0873  98.9931 15.27491725 38081
STARLINK-35504          
1 66325U 25253G   26185.68898659  .00031916  00000+0  11626-2 0  9997
2 66325  43.0032 272.1386 0001153 267.6879  92.3841 15.27627907 38138
STARLINK-35479          
1 66326U 25253H   26185.92611733  .00030218  00000+0  11018-2 0  9990
2 66326  42.9987 270.4715 0000698 281.2883  78.7890 15.27619999 38171
STARLINK-35507          
1 66327U 25253J   26186.29658977  .00044572  00000+0  16159-2 0  9992
2 66327  42.9977 268.0903 0002942 281.1937  78.8584 15.27650305 38230
STARLINK-35460          
1 66328U 25253K   26185.68127620  .00031890  00000+0  11620-2 0  9998
2 66328  43.0035 272.0800 0002369 278.2852  81.7731 15.27617765 38134
STARLINK-35505          
1 66329U 25253L   26185.92225268  .00033586  00000+0  12225-2 0  9999
2 66329  42.9998 270.4437 0003271 286.0267  74.0225 15.27629626 38175
STARLINK-35512          
1 66330U 25253M   26185.74023395  .00026961  00000+0  98440-3 0  9991
2 66330  42.9986 271.6644 0001178 294.0752  65.9976 15.27622439 38143
STARLINK-35257          
1 66331U 25253N   26186.22734026  .00031281  00000+0  11396-2 0  9991
2 66331  42.9984 268.4282 0000734 226.8306 133.2484 15.27633282 38229
STARLINK-35322          
1 66332U 25253P   26186.30301548  .00012584  00000+0  46607-3 0  9999
2 66332  42.9997 268.1463 0004930 299.1670  60.8688 15.27571564 38237
STARLINK-35400          
1 66333U 25253Q   26186.21722551  .00038408  00000+0  13947-2 0  9994
2 66333  43.0020 269.2190 0002154 173.4533 186.6348 15.27657169 38218
STARLINK-35407          
1 66334U 25253R   26186.29529816 -.00020567  00000+0 -74029-3 0  9990
2 66334  42.9976 268.0835 0002290 283.5487  76.5110 15.27561326 38237
STARLINK-35417          
1 66335U 25253S   26185.53251437  .00040283  00000+0  14631-2 0  9995
2 66335  42.9998 272.6800 0001646 270.5284  89.5379 15.27631122 38110
STARLINK-35404          
1 66336U 25253T   26186.24275757  .00010714  00000+0  39776-3 0  9990
2 66336  42.9985 268.5453 0001297 233.6815 126.3917 15.27624250 38221
STARLINK-34783          
1 66337U 25253U   26186.21592616  .00034285  00000+0  12478-2 0  9992
2 66337  42.9996 269.2139 0000647 278.4000  81.6779 15.27629296 38217
STARLINK-35477          
1 66338U 25253V   26186.24149005  .00025892  00000+0  94676-3 0  9991
2 66338  42.9940 268.5421 0000484 214.5330 145.5491 15.27591868 38224
STARLINK-35443          
1 66339U 25253W   26185.92099805  .00054695  00000+0  19812-2 0  9999
2 66339  42.9992 270.4318 0001670 275.9506  84.1155 15.27599090 38177
STARLINK-35218          
1 66340U 25253X   26185.68255682  .00026255  00000+0  95870-3 0  9991
2 66340  42.9987 272.0840 0001105 293.2684  66.8051 15.27631227 38131
STARLINK-35522          
1 66341U 25253Y   26186.26075306  .00043012  00000+0  15613-2 0  9996
2 66341  42.9966 268.6846 0000602 246.9771 113.1017 15.27624719 38225
STARLINK-35535          
1 66342U 25253Z   26185.92868778  .00021490  00000+0  78740-3 0  9999
2 66342  42.9981 270.4917 0000796 272.6776  87.3984 15.27611902 38177
STARLINK-35467          
1 66343U 25253AA  26186.20178983  .00022035  00000+0  80684-3 0  9990
2 66343  42.9997 269.1027 0001447 267.7629  92.3056 15.27621398 38219
