OBJECT_NAME,OBJECT_ID,EPOCH,MEAN_MOTION,ECCENTRICITY,INCLINATION,RA_OF_ASC_NODE,ARG_OF_PERICENTER,MEAN_ANOMALY,EPHEMERIS_TYPE,CLASSIFICATION_TYPE,NORAD_CAT_ID,ELEMENT_SET_NO,REV_AT_EPOCH,BSTAR,MEAN_MOTION_DOT,MEAN_MOTION_DDOT
TOMORROW-S9,2025-248S,2026-07-04T22:32:55.547520,15.20671658,.00032494,45.4040,26.5730,176.5870,183.5039,0,U,66309,999,3721,.29782888E-3,.6381E-4,0
CMS-03 (GSAT-7R),2025-249B,2026-07-05T03:55:39.971712,1.00271716,.00018812,0.0515,255.9198,179.6143,340.5229,0,U,66311,999,252,0,-.64E-6,0
YAOGAN-46,2025-250A,2026-07-04T06:42:39.009888,5.31203766,.00047688,20.0833,327.2118,157.8496,202.1946,0,U,66313,999,1300,0,-.26E-6,0
SENTINEL-1D,2025-251A,2026-07-04T23:53:39.434784,14.59197335,.00013065,98.1835,193.1045,90.7095,269.4254,0,U,66315,999,3532,-.15563546E-4,-.119E-5,0
QPS-SAR-14 (YACHIHOKO-I),2025-252A,2026-07-04T23:26:11.784192,14.99804901,.00057017,42.0046,34.0129,356.9146,3.1643,0,U,66316,999,3618,.63084974E-3,.7762E-4,0
STARLINK-35442,2025-253A,2026-07-05T04:59:49.966944,15.27632116,.00020559,43.0001,269.1605,281.3463,78.7157,0,U,66319,999,3821,.12383715E-2,.34028E-3,0
STARLINK-34616,2025-253B,2026-07-04T16:43:02.161920,15.27602414,.00018228,43.0014,271.3330,291.1818,68.8839,0,U,66320,999,3822,.11725864E-2,.32168E-3,0
STARLINK-34615,2025-253C,2026-07-04T12:37:34.138848,15.27617514,.00010888,42.9976,272.6120,277.8020,82.2708,0,U,66321,999,3811,.99731978E-3,.27315E-3,0
STARLINK-35292,2025-253D,2026-07-05T07:10:47.169120,15.27544903,.00014848,42.9970,268.1152,262.1588,97.9095,0,U,66322,999,3823,-.74576558E-4,-.2311E-4,0
STARLINK-35309,2025-253E,2026-07-05T05:01:42.057984,15.27633699,.00012512,42.9992,269.1588,226.4000,133.6748,0,U,66323,999,3821,.9815368E-3,.2689E-3,0
STARLINK-35506,2025-253F,2026-07-04T07:23:39.672384,15.27491725,.00004178,43.0017,273.5754,261.0873,98.9931,0,U,66324,999,3808,.13334052E-2,.36513E-3,0
STARLINK-35504,2025-253G,2026-07-04T16:32:08.441376,15.27627907,.00011534,43.0032,272.1386,267.6879,92.3841,0,U,66325,999,3813,.11626177E-2,.31916E-3,0
STARLINK-35479,2025-253H,2026-07-04T22:13:36.537312,15.27619999,.00006988,42.9987,270.4715,281.2883,78.7890,0,U,66326,999,3817,.11017861E-2,.30218E-3,0
STARLINK-35507,2025-253J,2026-07-05T07:07:05.356128,15.27650305,.00029426,42.9977,268.0903,281.1937,78.8584,0,U,66327,999,3823,.16159106E-2,.44572E-3,0
STARLINK-35460,2025-253K,2026-07-04T16:21:02.263680,15.27617765,.00023696,43.0035,272.0800,278.2852,81.7731,0,U,66328,999,3813,.11620118E-2,.3189E-3,0
STARLINK-35505,2025-253L,2026-07-04T22:08:02.631552,15.27629626,.00032715,42.9998,270.4437,286.0267,74.0225,0,U,66329,999,3817,.12225131E-2,.33586E-3,0
STARLINK-35512,2025-253M,2026-07-04T17:45:56.213280,15.27622439,.0001178,42.9986,271.6644,294.0752,65.9976,0,U,66330,999,3814,.98440276E-3,.26961E-3,0
STARLINK-35257,2025-253N,2026-07-05T05:27:22.198464,15.27633282,.0000734,42.9984,268.4282,226.8306,133.2484,0,U,66331,999,3822,.11395855E-2,.31281E-3,0
STARLINK-35322,2025-253P,2026-07-05T07:16:20.537472,15.27571564,.00049307,42.9997,268.1463,299.1670,60.8688,0,U,66332,999,3823,.46606697E-3,.12584E-3,0
STARLINK-35400,2025-253Q,2026-07-05T05:12:48.284064,15.27657169,.0002154,43.0020,269.2190,173.4533,186.6348,0,U,66333,999,3821,.13946878E-2,.38408E-3,0
STARLINK-35407,2025-253R,2026-07-05T07:05:13.761024,15.27561326,.00022902,42.9976,268.0835,283.5487,76.5110,0,U,66334,999,3823,-.74028736E-3,-.20567E-3,0
STARLINK-35417,2025-253S,2026-07-04T12:46:49.241568,15.27631122,.00016461,42.9998,272.6800,270.5284,89.5379,0,U,66335,999,3811,.1463099E-2,.40283E-3,0
STARLINK-35404,2025-253T,2026-07-05T05:49:34.254048,15.27624250,.00012971,42.9985,268.5453,233.6815,126.3917,0,U,66336,999,3822,.39776209E-3,.10714E-3,0
STARLINK-34783,2025-253U,2026-07-05T05:10:56.020224,15.27629296,.00006471,42.9996,269.2139,278.4000,81.6779,0,U,66337,999,3821,.12477534E-2,.34285E-3,0
STARLINK-35477,2025-253V,2026-07-05T05:47:44.740320,15.27591868,.0000484,42.9940,268.5421,214.5330,145.5491,0,U,66338,999,3822,.94675714E-3,.25892E-3,0
STARLINK-35443,2025-253W,2026-07-04T22:06:14.231520,15.27599090,.00016707,42.9992,270.4318,275.9506,84.1155,0,U,66339,999,3817,.19812398E-2,.54695E-3,0
STARLINK-35218,2025-253X,2026-07-04T16:22:52.909248,15.27631227,.00011056,42.9987,272.0840,293.2684,66.8051,0,U,66340,999,3813,.95870456E-3,.26255E-3,0
STARLINK-35522,2025-253Y,2026-07-05T06:15:29.064384,15.27624719,.00006029,42.9966,268.6846,246.9771,113.1017,0,U,66341,999,3822,.15613419E-2,.43012E-3,0
STARLINK-35535,2025-253Z,2026-07-04T22:17:18.624192,15.27611902,.00007961,42.9981,270.4917,272.6776,87.3984,0,U,66342,999,3817,.78740242E-3,.2149E-3,0
STARLINK-35467,2025-253AA,2026-07-05T04:50:34.641312,15.27621398,.00014475,42.9997,269.1027,267.7629,92.3056,0,U,66343,999,3821,.80683828E-3,.22035E-3,0
